0 RADUGA 1-3
1 22981U 94008A   13279.76541812 -.00000315  00000-0  10000-3 0  5988
2 22981 013.5622 031.6251 0003453 087.1364 272.9050 01.00263315 72022
0 RADUGA 1-3
1 22981U 94008A   13281.76009767 -.00000318  00000-0  10000-3 0  5993
2 22981 013.5651 031.6030 0003570 087.7743 272.2647 01.00262371 72044
0 RADUGA 1-3
1 22981U 94008A   13284.75214544 -.00000324  00000-0  10000-3 0  6017
2 22981 013.5688 031.5679 0003958 083.8003 276.2389 01.00261034 72073
0 RADUGA 1-3
1 22981U 94008A   13289.73892907 -.00000325  00000-0  10000-3 0  6027
2 22981 013.5768 031.5121 0003895 085.1761 274.8147 01.00257801 72129
0 RADUGA 1-3
1 22981U 94008A   13289.73901567 -.00000325  00000-0  10000-3 0  6031
2 22981 013.5755 031.5104 0004091 083.0177 277.0305 01.00258829 72125
0 RADUGA 1-3
1 22981U 94008A   13292.73107145 -.00000322  00000-0  10000-3 0  6043
2 22981 013.5795 031.4755 0004171 083.7412 276.2718 01.00257547 72156
0 RADUGA 1-3
1 22981U 94008A   13293.72846738 -.00000320  00000-0  10000-3 0  6050
2 22981 013.5810 031.4639 0003759 086.9658 273.0425 01.00257098 72165
